{"type": "FeatureCollection", "columns": {"CONTINENT": "String", "DISP_EN": "String", "FID": "Long", "GAUL0_CODE": "Long", "GAUL0_NAME": "String", "GAUL1_CODE": "Long", "GAUL1_NAME": "String", "GAUL2_CODE": "Long", "GAUL2_NAME": "String", "ISO3_CODE": "String", "MAP_CODE": "String", "system:index": "String"}, "version": 1788181224405167, "id": "FAO/GAUL/2025/level2", "properties": {"system:asset_size": 411665509}, "features": [{"type": "Feature", "geometry": {"type": "Polygon", "coordinates": [[[6.153100131762445, 4.877177458223992], [6.152301978641446, 4.859069053680241], [6.1566941740018315, 4.8492322467520905], [6.179997425766275, 4.84603061750039], [6.196959912205826, 4.846663820429797], [6.238286854669901, 4.851974615450176], [6.242723655725063, 4.868624923004772], [6.257938070965557, 4.87393123928421], [6.275350854237885, 4.874087275473623], [6.285477496646436, 4.876695868844912], [6.294252982875517, 4.880722470399893], [6.31468457914487, 4.895232367712975], [6.323522512490199, 4.902514042330885], [6.337867448830798, 4.91015696232883], [6.348970661111402, 4.916002807714199], [6.374543573948283, 4.935997455582542], [6.388964289471407, 4.947822958454766], [6.4020071872431, 4.959211509413012], [6.418287336839759, 4.972401591562723], [6.421667335865271, 4.981636317635484], [6.4103903024666025, 4.991125288593829], [6.411563062630695, 5.004582851619323], [6.417275168216209, 5.016096312345535], [6.425769699381847, 5.029424560595829], [6.429609020507733, 5.038650447570359], [6.43903554494813, 5.052888336424878], [6.443904918612138, 5.06813841355533], [6.451052864254739, 5.082880275141544], [6.46049723084139, 5.098050123232138], [6.464336471744908, 5.10727596308759], [6.4729826719734165, 5.128496824204985], [6.485815951699417, 5.15336524855064], [6.49333406579742, 5.163456169821569], [6.511362156975553, 5.171964145614481], [6.526300182043874, 5.174166926416998], [6.5345673645840305, 5.186844208588976], [6.544493311899573, 5.186295689287092], [6.553380322073642, 5.189809514712077], [6.558824868172998, 5.198424491229719], [6.549228884738382, 5.212653446472282], [6.552760500201729, 5.226539090531984], [6.566637177333141, 5.236973383203335], [6.547784148761067, 5.257752792945609], [6.537385526043034, 5.264905166214556], [6.53251172168776, 5.273818949883914], [6.530879660403603, 5.2845385979968365], [6.519731890980077, 5.276369574986022], [6.512240589848023, 5.267674300633048], [6.486997680007391, 5.2407012250589355], [6.47356235327899, 5.232576723743646], [6.462905134595182, 5.226258189451023], [6.451356098784304, 5.220884987180988], [6.439307591142149, 5.213665640979199], [6.424066362077723, 5.206963661490552], [6.400932570159282, 5.194825934868928], [6.38854513641408, 5.193648761625326], [6.397730922967638, 5.170720105338197], [6.401097550996566, 5.154859014167986], [6.399550192360068, 5.145593018151116], [6.395728788440593, 5.137294623062865], [6.369018762595296, 5.1052382060862405], [6.358267867145301, 5.093813956929224], [6.342183858975668, 5.091307925747337], [6.330674932887845, 5.088257900456646], [6.321926201908811, 5.085627036389266], [6.318925238816462, 5.072205179286068], [6.311759401823025, 5.056531405581294], [6.305217936186992, 5.049673321518774], [6.2918584399859805, 5.0457270289565646], [6.292536272220765, 5.055184780412], [6.283060670532904, 5.0612135009076225], [6.273585052760353, 5.0560453986835885], [6.26760543675751, 5.047087036704909], [6.265112789532559, 5.036443158568217], [6.261197722914495, 5.023034635298003], [6.248578434157718, 5.009782177257934], [6.224824777060677, 4.988828874819068], [6.207135543375619, 4.97380619956979], [6.183908088137358, 4.95655835295098], [6.159770960605576, 4.939787712844349], [6.147356815480563, 4.940585847568746], [6.153100131762445, 4.877177458223992]]]}, "id": "000000000000000006f6", "properties": {"CONTINENT": "Africa", "DISP_EN": "Yenegoa, Bayelsa, Nigeria", "FID": 25169, "GAUL0_CODE": 151, "GAUL0_NAME": "Nigeria", "GAUL1_CODE": 1522, "GAUL1_NAME": "Bayelsa", "GAUL2_CODE": 104748, "GAUL2_NAME": "Yenegoa", "ISO3_CODE": "NGA", "MAP_CODE": "NGA"}}]}